STARLINK-3697           
1 51962U 22025G   26068.20356615 -.00000302  00000+0  18600-5 0  9999
2 51962  53.1570  26.3329 0001382  87.4855 272.6303 15.29354232220948
NUSAT-50 (NANCY ROMAN)  
1 60493U 24149AB  26068.80227738  .00012094  00000+0  42252-3 0  9994
2 60493  97.3817 150.7693 0002523 238.0469 122.0527 15.29713355 86930
